{"type": "FeatureCollection", "features": [ {"type": "Feature", "properties": {"norad_id": 37927, "name": "FENGYUN 1C DEB", "group": "fengyun-1c-debris", "lat": -64.54885361448962, "lon": 159.63851870113533, "alt_km": 657.4102806970104, "timestamp": "2025-12-22T04:03:39.459115+00:00", "meta": {"OBJECT_NAME": "FENGYUN 1C DEB", "OBJECT_ID": "1999-025EPC", "EPOCH": "2025-12-20T03:25:18.230304", "MEAN_MOTION": 14.72067181, "ECCENTRICITY": 0.00083592, "INCLINATION": 98.8071, "RA_OF_ASC_NODE": 138.4338, "ARG_OF_PERICENTER": 253.9424, "MEAN_ANOMALY": 106.086, "EPHEMERIS_TYPE": 0, "CLASSIFICATION_TYPE": "U", "NORAD_CAT_ID": 37927, "ELEMENT_SET_NO": 999, "REV_AT_EPOCH": 65225, "BSTAR": 0.0024443804, "MEAN_MOTION_DOT": 0.00015349, "MEAN_MOTION_DDOT": 0}, "tle": {"line1": "1 37927U 99025EPC 25354.14257211  .00015349  00000+0  24444-2 0  9996", "line2": "2 37927  98.8071 138.4338 0008359 253.9424 106.0860 14.72067181652255"}}, "geometry": {"type": "Point", "coordinates": [159.63851870113533, -64.54885361448962]}}, {"type": "Feature", "properties": {"norad_id": 37928, "name": "FENGYUN 1C DEB", "group": "fengyun-1c-debris", "lat": 46.6913201504679, "lon": 60.68940505251692, "alt_km": 794.8994838738636, "timestamp": "2025-12-22T04:03:39.459125+00:00", "meta": {"OBJECT_NAME": "FENGYUN 1C DEB", "OBJECT_ID": "1999-025EPD", "EPOCH": "2025-12-21T09:04:11.551008", "MEAN_MOTION": 14.37132631, "ECCENTRICITY": 0.0073076, "INCLINATION": 98.9148, "RA_OF_ASC_NODE": 230.2847, "ARG_OF_PERICENTER": 7.9876, "MEAN_ANOMALY": 352.2454, "EPHEMERIS_TYPE": 0, "CLASSIFICATION_TYPE": "U", "NORAD_CAT_ID": 37928, "ELEMENT_SET_NO": 999, "REV_AT_EPOCH": 81316, "BSTAR": 0.00050775945, "MEAN_MOTION_DOT": 1.508e-05, "MEAN_MOTION_DDOT": 0}, "tle": {"line1": "1 37928U 99025EPD 25355.37791147  .00001508  00000+0  50776-3 0  9994", "line2": "2 37928  98.9148 230.2847 0073076   7.9876 352.2454 14.37132631813161"}}, "geometry": {"type": "Point", "coordinates": [60.68940505251692, 46.6913201504679]}}, {"type": "Feature", "properties": {"norad_id": 38116, "name": "FENGYUN 1C DEB", "group": "fengyun-1c-debris", "lat": -10.936729248124049, "lon": -146.9861970101272, "alt_km": 822.1430372059385, "timestamp": "2025-12-22T04:03:39.459135+00:00", "meta": {"OBJECT_NAME": "FENGYUN 1C DEB", "OBJECT_ID": "1999-025EPM", "EPOCH": "2025-12-21T08:35:05.821728", "MEAN_MOTION": 14.17033054, "ECCENTRICITY": 0.00724673, "INCLINATION": 98.7117, "RA_OF_ASC_NODE": 33.9167, "ARG_OF_PERICENTER": 122.4097, "MEAN_ANOMALY": 250.3573, "EPHEMERIS_TYPE": 0, "CLASSIFICATION_TYPE": "U", "NORAD_CAT_ID": 38116, "ELEMENT_SET_NO": 999, "REV_AT_EPOCH": 64607, "BSTAR": 0.00039691226, "MEAN_MOTION_DOT": 7.76e-06, "MEAN_MOTION_DDOT": 0}, "tle": {"line1": "1 38116U 99025EPM 25355.35770627  .00000776  00000+0  39691-3 0  9991", "line2": "2 38116  98.7117  33.9167 0072467 122.4097 250.3573 14.17033054646070"}}, "geometry": {"type": "Point", "coordinates": [-146.9861970101272, -10.936729248124049]}}, {"type": "Feature", "properties": {"norad_id": 38121, "name": "FENGYUN 1C DEB", "group": "fengyun-1c-debris", "lat": -80.02789918984263, "lon": -97.97553960687009, "alt_km": 969.7162631835427, "timestamp": "2025-12-22T04:03:39.459145+00:00", "meta": {"OBJECT_NAME": "FENGYUN 1C DEB", "OBJECT_ID": "1999-025EPS", "EPOCH": "2025-12-13T04:20:01.430304", "MEAN_MOTION": 14.21784212, "ECCENTRICITY": 0.02064826, "INCLINATION": 99.1148, "RA_OF_ASC_NODE": 138.6695, "ARG_OF_PERICENTER": 126.4735, "MEAN_ANOMALY": 235.5664, "EPHEMERIS_TYPE": 0, "CLASSIFICATION_TYPE": "U", "NORAD_CAT_ID": 38121, "ELEMENT_SET_NO": 999, "REV_AT_EPOCH": 83926, "BSTAR": 0.0016630973, "MEAN_MOTION_DOT": 4.5e-05, "MEAN_MOTION_DDOT": 0}, "tle": {"line1": "1 38121U 99025EPS 25347.18057211  .00004500  00000+0  16631-2 0  9993", "line2": "2 38121  99.1148 138.6695 0206482 126.4735 235.5664 14.21784212839268"}}, "geometry": {"type": "Point", "coordinates": [-97.97553960687009, -80.02789918984263]}}, {"type": "Feature", "properties": {"norad_id": 38122, "name": "FENGYUN 1C DEB", "group": "fengyun-1c-debris", "lat": -8.851135369689784, "lon": 177.07450702148998, "alt_km": 670.6123097971822, "timestamp": "2025-12-22T04:03:39.459155+00:00", "meta": {"OBJECT_NAME": "FENGYUN 1C DEB", "OBJECT_ID": "1999-025EPT", "EPOCH": "2025-12-20T11:15:30.693600", "MEAN_MOTION": 14.42669791, "ECCENTRICITY": 0.02281626, "INCLINATION": 98.3168, "RA_OF_ASC_NODE": 356.7199, "ARG_OF_PERICENTER": 133.5612, "MEAN_ANOMALY": 228.4777, "EPHEMERIS_TYPE": 0, "CLASSIFICATION_TYPE": "U", "NORAD_CAT_ID": 38122, "ELEMENT_SET_NO": 999, "REV_AT_EPOCH": 67850, "BSTAR": 0.00022815826, "MEAN_MOTION_DOT": 9.88e-06, "MEAN_MOTION_DDOT": 0}, "tle": {"line1": "1 38122U 99025EPT 25354.46910525  .00000988  00000+0  22816-3 0  9998", "line2": "2 38122  98.3168 356.7199 0228162 133.5612 228.4777 14.42669791678507"}}, "geometry": {"type": "Point", "coordinates": [177.07450702148998, -8.851135369689784]}}, {"type": "Feature", "properties": {"norad_id": 38124, "name": "FENGYUN 1C DEB", "group": "fengyun-1c-debris", "lat": -82.03610828775682, "lon": 47.81307155795143, "alt_km": 853.6761508670661, "timestamp": "2025-12-22T04:03:39.459165+00:00", "meta": {"OBJECT_NAME": "FENGYUN 1C DEB", "OBJECT_ID": "1999-025EPV", "EPOCH": "2025-12-20T14:53:13.924320", "MEAN_MOTION": 13.40937676, "ECCENTRICITY": 0.035542, "INCLINATION": 97.8099, "RA_OF_ASC_NODE": 305.4265, "ARG_OF_PERICENTER": 285.6733, "MEAN_ANOMALY": 70.5462, "EPHEMERIS_TYPE": 0, "CLASSIFICATION_TYPE": "U", "NORAD_CAT_ID": 38124, "ELEMENT_SET_NO": 999, "REV_AT_EPOCH": 54687, "BSTAR": 0.00016826, "MEAN_MOTION_DOT": 1.02e-06, "MEAN_MOTION_DDOT": 0}, "tle": {"line1": "1 38124U 99025EPV 25354.62030005  .00000102  00000+0  16826-3 0  9996", "line2": "2 38124  97.8099 305.4265 0355420 285.6733  70.5462 13.40937676546870"}}, "geometry": {"type": "Point", "coordinates": [47.81307155795143, -82.03610828775682]}}, {"type": "Feature", "properties": {"norad_id": 38130, "name": "FENGYUN 1C DEB", "group": "fengyun-1c-debris", "lat": 58.75082787465905, "lon": -118.56454885191503, "alt_km": 936.5107405129875, "timestamp": "2025-12-22T04:03:39.459176+00:00", "meta": {"OBJECT_NAME": "FENGYUN 1C DEB", "OBJECT_ID": "1999-025EQB", "EPOCH": "2025-11-28T09:19:02.490528", "MEAN_MOTION": 13.7720595, "ECCENTRICITY": 0.02085156, "INCLINATION": 98.6035, "RA_OF_ASC_NODE": 25.4413, "ARG_OF_PERICENTER": 263.5047, "MEAN_ANOMALY": 94.2329, "EPHEMERIS_TYPE": 0, "CLASSIFICATION_TYPE": "U", "NORAD_CAT_ID": 38130, "ELEMENT_SET_NO": 999, "REV_AT_EPOCH": 69085, "BSTAR": 0.0016964005, "MEAN_MOTION_DOT": 1.933e-05, "MEAN_MOTION_DDOT": 0}, "tle": {"line1": "1 38130U 99025EQB 25332.38822327  .00001933  00000+0  16964-2 0  9993", "line2": "2 38130  98.6035  25.4413 0208515 263.5047  94.2329 13.77205950690851"}}, "geometry": {"type": "Point", "coordinates": [-118.56454885191503, 58.75082787465905]}}, {"type": "Feature", "properties": {"norad_id": 38135, "name": "FENGYUN 1C DEB", "group": "fengyun-1c-debris", "lat": -39.83301430026532, "lon": 60.14275045086147, "alt_km": 794.5051637159595, "timestamp": "2025-12-22T04:03:39.459186+00:00", "meta": {"OBJECT_NAME": "FENGYUN 1C DEB", "OBJECT_ID": "1999-025EQG", "EPOCH": "2025-12-20T10:07:36.417792", "MEAN_MOTION": 14.25297349, "ECCENTRICITY": 0.02226674, "INCLINATION": 98.6595, "RA_OF_ASC_NODE": 51.1134, "ARG_OF_PERICENTER": 49.0857, "MEAN_ANOMALY": 312.9371, "EPHEMERIS_TYPE": 0, "CLASSIFICATION_TYPE": "U", "NORAD_CAT_ID": 38135, "ELEMENT_SET_NO": 999, "REV_AT_EPOCH": 61150, "BSTAR": 0.00027123211, "MEAN_MOTION_DOT": 7.8e-06, "MEAN_MOTION_DDOT": 0}, "tle": {"line1": "1 38135U 99025EQG 25354.42194928  .00000780  00000+0  27123-3 0  9995", "line2": "2 38135  98.6595  51.1134 0222667  49.0857 312.9371 14.25297349611502"}}, "geometry": {"type": "Point", "coordinates": [60.14275045086147, -39.83301430026532]}}, {"type": "Feature", "properties": {"norad_id": 38137, "name": "FENGYUN 1C DEB", "group": "fengyun-1c-debris", "lat": 18.060734572179612, "lon": 35.79828436667451, "alt_km": 842.0853043511133, "timestamp": "2025-12-22T04:03:39.459196+00:00", "meta": {"OBJECT_NAME": "FENGYUN 1C DEB", "OBJECT_ID": "1999-025EQJ", "EPOCH": "2025-12-11T22:03:53.453088", "MEAN_MOTION": 14.06158007, "ECCENTRICITY": 0.0046494, "INCLINATION": 98.8649, "RA_OF_ASC_NODE": 28.6821, "ARG_OF_PERICENTER": 71.683, "MEAN_ANOMALY": 288.9388, "EPHEMERIS_TYPE": 0, "CLASSIFICATION_TYPE": "U", "NORAD_CAT_ID": 38137, "ELEMENT_SET_NO": 999, "REV_AT_EPOCH": 63697, "BSTAR": 0.00049172, "MEAN_MOTION_DOT": 7.73e-06, "MEAN_MOTION_DDOT": 0}, "tle": {"line1": "1 38137U 99025EQJ 25345.91936867  .00000773  00000+0  49172-3 0  9997", "line2": "2 38137  98.8649  28.6821 0046494  71.6830 288.9388 14.06158007636976"}}, "geometry": {"type": "Point", "coordinates": [35.79828436667451, 18.060734572179612]}}, {"type": "Feature", "properties": {"norad_id": 38143, "name": "FENGYUN 1C DEB", "group": "fengyun-1c-debris", "lat": 74.19617618324298, "lon": -93.78005342073672, "alt_km": 870.5131148529399, "timestamp": "2025-12-22T04:03:39.459206+00:00", "meta": {"OBJECT_NAME": "FENGYUN 1C DEB", "OBJECT_ID": "1999-025EQQ", "EPOCH": "2025-12-17T09:02:58.047936", "MEAN_MOTION": 14.0490641, "ECCENTRICITY": 0.00563343, "INCLINATION": 99.0304, "RA_OF_ASC_NODE": 47.2681, "ARG_OF_PERICENTER": 207.7954, "MEAN_ANOMALY": 152.0199, "EPHEMERIS_TYPE": 0, "CLASSIFICATION_TYPE": "U", "NORAD_CAT_ID": 38143, "ELEMENT_SET_NO": 999, "REV_AT_EPOCH": 60348, "BSTAR": 0.00075665918, "MEAN_MOTION_DOT": 1.189e-05, "MEAN_MOTION_DDOT": 0}, "tle": {"line1": "1 38143U 99025EQQ 25351.37706074  .00001189  00000+0  75666-3 0  9995", "line2": "2 38143  99.0304  47.2681 0056334 207.7954 152.0199 14.04906410603486"}}, "geometry": {"type": "Point", "coordinates": [-93.78005342073672, 74.19617618324298]}}]}